{"type": "FeatureCollection", "features": [{"type": "Feature", "properties": {"norad_id": 2807, "name": "OPS 7218 (TRANSIT 16)", "group": "nnss", "lat": 23.836366250541122, "lon": -5.738575081067709, "alt_km": 1071.3419890945388, "timestamp": "2025-12-09T16:56:36.843152+00:00", "meta": {"OBJECT_NAME": "OPS 7218 (TRANSIT 16)", "OBJECT_ID": "1967-048A", "EPOCH": "2025-12-09T12:15:09.098208", "MEAN_MOTION": 13.50721383, "ECCENTRICITY": 0.0021814, "INCLINATION": 89.6732, "RA_OF_ASC_NODE": 354.1234, "ARG_OF_PERICENTER": 122.7189, "MEAN_ANOMALY": 31.5887, "EPHEMERIS_TYPE": 0, "CLASSIFICATION_TYPE": "U", "NORAD_CAT_ID": 2807, "ELEMENT_SET_NO": 999, "REV_AT_EPOCH": 88232, "BSTAR": 0.00022437, "MEAN_MOTION_DOT": 1.55e-06, "MEAN_MOTION_DDOT": 0}, "tle": {"line1": "1 02807U 67048A   25343.51052197  .00000155  00000+0  22437-3 0  9990", "line2": "2 02807  89.6732 354.1234 0021814 122.7189  31.5887 13.50721383882320"}}, "geometry": {"type": "Point", "coordinates": [-5.738575081067709, 23.836366250541122]}}, {"type": "Feature", "properties": {"norad_id": 2965, "name": "OPS 4947 (TRANSIT 17)", "group": "nnss", "lat": 58.86153506698259, "lon": 25.909633305247837, "alt_km": 1088.075415189106, "timestamp": "2025-12-09T16:56:36.843174+00:00", "meta": {"OBJECT_NAME": "OPS 4947 (TRANSIT 17)", "OBJECT_ID": "1967-092A", "EPOCH": "2025-12-09T09:36:30.323808", "MEAN_MOTION": 13.53452312, "ECCENTRICITY": 0.0045999, "INCLINATION": 89.2499, "RA_OF_ASC_NODE": 24.6904, "ARG_OF_PERICENTER": 244.5157, "MEAN_ANOMALY": 126.0877, "EPHEMERIS_TYPE": 0, "CLASSIFICATION_TYPE": "U", "NORAD_CAT_ID": 2965, "ELEMENT_SET_NO": 999, "REV_AT_EPOCH": 87052, "BSTAR": 0.00025971, "MEAN_MOTION_DOT": 1.87e-06, "MEAN_MOTION_DDOT": 0}, "tle": {"line1": "1 02965U 67092A   25343.40035097  .00000187  00000+0  25971-3 0  9993", "line2": "2 02965  89.2499  24.6904 0045999 244.5157 126.0877 13.53452312870526"}}, "geometry": {"type": "Point", "coordinates": [25.909633305247837, 58.86153506698259]}}, {"type": "Feature", "properties": {"norad_id": 3133, "name": "OPS 7034 (TRANSIT 18)", "group": "nnss", "lat": -49.39968014231387, "lon": 93.59797791647358, "alt_km": 1039.0235455791135, "timestamp": "2025-12-09T16:56:36.843187+00:00", "meta": {"OBJECT_NAME": "OPS 7034 (TRANSIT 18)", "OBJECT_ID": "1968-012A", "EPOCH": "2025-12-09T07:29:45.032928", "MEAN_MOTION": 13.5156455, "ECCENTRICITY": 0.0073521, "INCLINATION": 90.0276, "RA_OF_ASC_NODE": 273.6291, "ARG_OF_PERICENTER": 179.0874, "MEAN_ANOMALY": 295.335, "EPHEMERIS_TYPE": 0, "CLASSIFICATION_TYPE": "U", "NORAD_CAT_ID": 3133, "ELEMENT_SET_NO": 999, "REV_AT_EPOCH": 56872, "BSTAR": 0.00028816, "MEAN_MOTION_DOT": 2e-06, "MEAN_MOTION_DDOT": 0}, "tle": {"line1": "1 03133U 68012A   25343.31232677  .00000200  00000+0  28816-3 0  9994", "line2": "2 03133  90.0276 273.6291 0073521 179.0874 295.3350 13.51564550568720"}}, "geometry": {"type": "Point", "coordinates": [93.59797791647358, -49.39968014231387]}}, {"type": "Feature", "properties": {"norad_id": 4507, "name": "NNSS 19 (TRANSIT 19)", "group": "nnss", "lat": -21.053394735367135, "lon": 54.52955678449877, "alt_km": 1095.5304477470354, "timestamp": "2025-12-09T16:56:36.843200+00:00", "meta": {"OBJECT_NAME": "NNSS 19 (TRANSIT 19)", "OBJECT_ID": "1970-067A", "EPOCH": "2025-12-09T10:36:12.002112", "MEAN_MOTION": 13.51314006, "ECCENTRICITY": 0.0170745, "INCLINATION": 90.0057, "RA_OF_ASC_NODE": 234.5316, "ARG_OF_PERICENTER": 303.0164, "MEAN_ANOMALY": 55.4679, "EPHEMERIS_TYPE": 0, "CLASSIFICATION_TYPE": "U", "NORAD_CAT_ID": 4507, "ELEMENT_SET_NO": 999, "REV_AT_EPOCH": 72177, "BSTAR": 0.00031891, "MEAN_MOTION_DOT": 2.34e-06, "MEAN_MOTION_DDOT": 0}, "tle": {"line1": "1 04507U 70067A   25343.44180558  .00000234  00000+0  31891-3 0  9991", "line2": "2 04507  90.0057 234.5316 0170745 303.0164  55.4679 13.51314006721778"}}, "geometry": {"type": "Point", "coordinates": [54.52955678449877, -21.053394735367135]}}, {"type": "Feature", "properties": {"norad_id": 6909, "name": "NNSS 20 (TRANSIT 20)", "group": "nnss", "lat": 55.09748617867316, "lon": -104.69421867030563, "alt_km": 890.9676881479727, "timestamp": "2025-12-09T16:56:36.843210+00:00", "meta": {"OBJECT_NAME": "NNSS 20 (TRANSIT 20)", "OBJECT_ID": "1973-081A", "EPOCH": "2025-12-09T11:25:36.408576", "MEAN_MOTION": 13.71432035, "ECCENTRICITY": 0.0156617, "INCLINATION": 89.8562, "RA_OF_ASC_NODE": 255.103, "ARG_OF_PERICENTER": 87.977, "MEAN_ANOMALY": 273.932, "EPHEMERIS_TYPE": 0, "CLASSIFICATION_TYPE": "U", "NORAD_CAT_ID": 6909, "ELEMENT_SET_NO": 999, "REV_AT_EPOCH": 80316, "BSTAR": 0.00036387, "MEAN_MOTION_DOT": 3.69e-06, "MEAN_MOTION_DDOT": 0}, "tle": {"line1": "1 06909U 73081A   25343.47611584  .00000369  00000+0  36387-3 0  9993", "line2": "2 06909  89.8562 255.1030 0156617  87.9770 273.9320 13.71432035803167"}}, "geometry": {"type": "Point", "coordinates": [-104.69421867030563, 55.09748617867316]}}, {"type": "Feature", "properties": {"norad_id": 10457, "name": "TRANSAT", "group": "nnss", "lat": -53.94512371356433, "lon": -100.81189748529751, "alt_km": 1067.9784026914558, "timestamp": "2025-12-09T16:56:36.843221+00:00", "meta": {"OBJECT_NAME": "TRANSAT", "OBJECT_ID": "1977-106A", "EPOCH": "2025-12-09T12:17:08.947104", "MEAN_MOTION": 13.48942917, "ECCENTRICITY": 0.0025087, "INCLINATION": 89.6481, "RA_OF_ASC_NODE": 78.7113, "ARG_OF_PERICENTER": 198.9497, "MEAN_ANOMALY": 172.8613, "EPHEMERIS_TYPE": 0, "CLASSIFICATION_TYPE": "U", "NORAD_CAT_ID": 10457, "ELEMENT_SET_NO": 999, "REV_AT_EPOCH": 36700, "BSTAR": 0.00021587, "MEAN_MOTION_DOT": 1.45e-06, "MEAN_MOTION_DDOT": 0}, "tle": {"line1": "1 10457U 77106A   25343.51190911  .00000145  00000+0  21587-3 0  9997", "line2": "2 10457  89.6481  78.7113 0025087 198.9497 172.8613 13.48942917367003"}}, "geometry": {"type": "Point", "coordinates": [-100.81189748529751, -53.94512371356433]}}, {"type": "Feature", "properties": {"norad_id": 12458, "name": "NOVA 1", "group": "nnss", "lat": 54.946972517905564, "lon": 91.63867046332187, "alt_km": 1160.4300592464697, "timestamp": "2025-12-09T16:56:36.843232+00:00", "meta": {"OBJECT_NAME": "NOVA 1", "OBJECT_ID": "1981-044A", "EPOCH": "2025-12-09T07:51:55.116000", "MEAN_MOTION": 13.23277978, "ECCENTRICITY": 0.0015808, "INCLINATION": 89.8523, "RA_OF_ASC_NODE": 91.4334, "ARG_OF_PERICENTER": 112.3662, "MEAN_ANOMALY": 301.8764, "EPHEMERIS_TYPE": 0, "CLASSIFICATION_TYPE": "U", "NORAD_CAT_ID": 12458, "ELEMENT_SET_NO": 999, "REV_AT_EPOCH": 15141, "BSTAR": 0.00024038, "MEAN_MOTION_DOT": 1.11e-06, "MEAN_MOTION_DDOT": 0}, "tle": {"line1": "1 12458U 81044A   25343.32772125  .00000111  00000+0  24038-3 0  9995", "line2": "2 12458  89.8523  91.4334 0015808 112.3662 301.8764 13.23277978151414"}}, "geometry": {"type": "Point", "coordinates": [91.63867046332187, 54.946972517905564]}}, {"type": "Feature", "properties": {"norad_id": 15362, "name": "NOVA 3", "group": "nnss", "lat": -69.92012008953769, "lon": 80.83376693733442, "alt_km": 1165.6530200765637, "timestamp": "2025-12-09T16:56:36.843242+00:00", "meta": {"OBJECT_NAME": "NOVA 3", "OBJECT_ID": "1984-110A", "EPOCH": "2025-12-09T08:33:53.307936", "MEAN_MOTION": 13.23044007, "ECCENTRICITY": 0.0030752, "INCLINATION": 90.1223, "RA_OF_ASC_NODE": 80.4949, "ARG_OF_PERICENTER": 341.5162, "MEAN_ANOMALY": 87.0197, "EPHEMERIS_TYPE": 0, "CLASSIFICATION_TYPE": "U", "NORAD_CAT_ID": 15362, "ELEMENT_SET_NO": 999, "REV_AT_EPOCH": 98654, "BSTAR": 0.00021115, "MEAN_MOTION_DOT": 9.7e-07, "MEAN_MOTION_DDOT": 0}, "tle": {"line1": "1 15362U 84110A   25343.35686699  .00000097  00000+0  21115-3 0  9998", "line2": "2 15362  90.1223  80.4949 0030752 341.5162  87.0197 13.23044007986547"}}, "geometry": {"type": "Point", "coordinates": [80.83376693733442, -69.92012008953769]}}, {"type": "Feature", "properties": {"norad_id": 15935, "name": "OSCAR 30", "group": "nnss", "lat": -50.40618376800716, "lon": -80.40206058866451, "alt_km": 1224.3304806678252, "timestamp": "2025-12-09T16:56:36.843253+00:00", "meta": {"OBJECT_NAME": "OSCAR 30", "OBJECT_ID": "1985-066A", "EPOCH": "2025-12-09T08:54:51.030144", "MEAN_MOTION": 13.36077553, "ECCENTRICITY": 0.0169409, "INCLINATION": 90.1649, "RA_OF_ASC_NODE": 99.792, "ARG_OF_PERICENTER": 93.3036, "MEAN_ANOMALY": 327.4735, "EPHEMERIS_TYPE": 0, "CLASSIFICATION_TYPE": "U", "NORAD_CAT_ID": 15935, "ELEMENT_SET_NO": 999, "REV_AT_EPOCH": 96408, "BSTAR": 0.00028645, "MEAN_MOTION_DOT": 1.7e-06, "MEAN_MOTION_DDOT": 0}, "tle": {"line1": "1 15935U 85066A   25343.37142396  .00000170  00000+0  28645-3 0  9995", "line2": "2 15935  90.1649  99.7920 0169409  93.3036 327.4735 13.36077553964081"}}, "geometry": {"type": "Point", "coordinates": [-80.40206058866451, -50.40618376800716]}}, {"type": "Feature", "properties": {"norad_id": 15936, "name": "OSCAR 24", "group": "nnss", "lat": -55.031803597290875, "lon": 92.50756392680987, "alt_km": 1245.864880842857, "timestamp": "2025-12-09T16:56:36.843263+00:00", "meta": {"OBJECT_NAME": "OSCAR 24", "OBJECT_ID": "1985-066B", "EPOCH": "2025-12-09T08:32:47.059008", "MEAN_MOTION": 13.35935107, "ECCENTRICITY": 0.0170471, "INCLINATION": 90.1788, "RA_OF_ASC_NODE": 92.2456, "ARG_OF_PERICENTER": 99.7827, "MEAN_ANOMALY": 324.407, "EPHEMERIS_TYPE": 0, "CLASSIFICATION_TYPE": "U", "NORAD_CAT_ID": 15936, "ELEMENT_SET_NO": 999, "REV_AT_EPOCH": 96598, "BSTAR": 0.00025473, "MEAN_MOTION_DOT": 1.52e-06, "MEAN_MOTION_DDOT": 0}, "tle": {"line1": "1 15936U 85066B   25343.35610022  .00000152  00000+0  25473-3 0  9996", "line2": "2 15936  90.1788  92.2456 0170471  99.7827 324.4070 13.35935107965983"}}, "geometry": {"type": "Point", "coordinates": [92.50756392680987, -55.031803597290875]}}]}